ONEWEB-0560             
1 55145U 23004F   25214.01404880  .00000089  00000+0  19250-3 0  9994
2 55145  87.9120  38.8823 0001884  80.5598 279.5747 13.18684576127647
ONEWEB-0565             
1 55146U 23004G   25213.47632215  .00000052  00000+0  98183-4 0  9992
2 55146  87.9109  39.0467 0001351  77.9003 282.2280 13.18685980127566
ONEWEB-0567             
1 55147U 23004H   25214.07673821  .00000077  00000+0  16368-3 0  9999
2 55147  87.9118  38.8847 0001607  78.0740 282.0572 13.18686763127641
ONEWEB-0569             
1 55148U 23004J   25213.51929144  .00000036  00000+0  63008-4 0  9999
2 55148  87.8969  23.7079 0001920  60.8397 299.2924 13.13470173128216
ONEWEB-0570             
1 55149U 23004K   25213.91507214  .00000041  00000+0  71697-4 0  9993
2 55149  87.9114  38.9190 0001268  99.4279 260.6997 13.18684496127619
ONEWEB-0571             
1 55150U 23004L   25214.06023353  .00000014  00000+0  23728-5 0  9992
2 55150  87.9110  38.8962 0001366  44.8717 315.2526 13.18686962127641
ONEWEB-0572             
1 55151U 23004M   25214.13179612  .00000100  00000+0  22466-3 0  9993
2 55151  87.9040  69.3663 0001564  82.8890 277.2419 13.17648443125462
ONEWEB-0573             
1 55152U 23004N   25214.05364927 -.00000029  00000+0 -10622-3 0  9993
2 55152  87.9110  38.9042 0001004  71.0609 289.0632 13.18687314127631
